SL-3 R/B                
1 13403U 82079B   26090.51719248  .00006540  00000+0  25796-3 0  9997
2 13403  81.1485 167.3042 0025490  93.0792 267.3359 15.25090992381024
SL-14 R/B               
1 13553U 82092B   26090.53648768  .00000585  00000+0  62969-4 0  9995
2 13553  82.5655 120.9614 0019195 225.5921 294.7480 14.86686473332177
SL-3 R/B                
1 13819U 83010B   26090.17444939  .00017169  00000+0  33669-3 0  9995
2 13819  81.1052 335.8952 0015755 337.2346  22.8198 15.47083831361265
SL-3 R/B                
1 14208U 83075B   26090.47324257  .00013495  00000+0  34924-3 0  9995
2 14208  97.6132  95.8838 0022519 147.5236 212.7400 15.38938618333505
COSMOS 1536             
1 14699U 84013A   26090.38779092  .00009126  00000+0  37315-3 0  9996
2 14699  82.5412  86.2702 0013669 198.4040 161.6705 15.24126302275926
SL-14 R/B               
1 14820U 84027B   26090.44297357  .00000732  00000+0  80852-4 0  9992
2 14820  82.5422 224.6095 0016490 260.6563  99.2789 14.86000279250868
SL-8 R/B                
1 15483U 85006B   26090.36075271  .00000375  00000+0  13277-3 0  9995
2 15483  74.0455 221.2693 0017585 132.7551 257.7416 14.37799045157142
SL-12 R/B(2)            
1 15772U 85042D   26090.30798973  .00000094  00000+0  63875-4 0  9999
2 15772  71.1093  42.0527 0032852  92.2715  59.5144 14.21988631117461
SL-14 R/B               
1 15945U 85069B   26090.21918292  .00000639  00000+0  69335-4 0  9990
2 15945  82.5305   4.6942 0020145 118.7356 241.5888 14.86456742176037
SL-16 R/B               
1 16182U 85097B   26090.38979140 -.00000157  00000+0 -54509-4 0  9996
2 16182  71.0007  94.8667 0009381 234.3937 225.2718 14.16603295 90303
SL-14 R/B               
1 16496U 86006B   26090.39261485  .00001251  00000+0  13032-3 0  9991
2 16496  82.5255 239.3067 0075993 199.7236 160.1040 14.86851633152437
COSMOS 1743             
1 16719U 86034A   26090.33123292  .00050869  00000+0  61668-3 0  9994
2 16719  82.5308  51.0858 0004978 164.7623 195.3784 15.60415234183624
