CCSDS_OMM_VERS = 2.0
CREATION_DATE  = 
ORIGINATOR     = 

OBJECT_NAME    = SL-3 R/B
OBJECT_ID      = 1982-079B
CENTER_NAME    = EARTH
REF_FRAME      = TEME
TIME_SYSTEM    = UTC
MEAN_ELEMENT_THEORY = SGP/SGP4

EPOCH          = 2026-03-31T12:24:45.430272
MEAN_MOTION    = 15.25090992
ECCENTRICITY   = .00254902
INCLINATION    = 81.1485
RA_OF_ASC_NODE = 167.3042
ARG_OF_PERICENTER = 93.0792
MEAN_ANOMALY   = 267.3359

EPHEMERIS_TYPE = 0
CLASSIFICATION_TYPE = U
NORAD_CAT_ID   = 13403
ELEMENT_SET_NO = 999
REV_AT_EPOCH   = 38102
BSTAR          = .25796318E-3
MEAN_MOTION_DOT = .654E-4
MEAN_MOTION_DDOT = 0

CCSDS_OMM_VERS = 2.0
CREATION_DATE  = 
ORIGINATOR     = 

OBJECT_NAME    = SL-14 R/B
OBJECT_ID      = 1982-092B
CENTER_NAME    = EARTH
REF_FRAME      = TEME
TIME_SYSTEM    = UTC
MEAN_ELEMENT_THEORY = SGP/SGP4

EPOCH          = 2026-03-31T12:52:32.535552
MEAN_MOTION    = 14.86686473
ECCENTRICITY   = .00191953
INCLINATION    = 82.5655
RA_OF_ASC_NODE = 120.9614
ARG_OF_PERICENTER = 225.5921
MEAN_ANOMALY   = 294.7480

EPHEMERIS_TYPE = 0
CLASSIFICATION_TYPE = U
NORAD_CAT_ID   = 13553
ELEMENT_SET_NO = 999
REV_AT_EPOCH   = 33217
BSTAR          = .62969317E-4
MEAN_MOTION_DOT = .585E-5
MEAN_MOTION_DDOT = 0

CCSDS_OMM_VERS = 2.0
CREATION_DATE  = 
ORIGINATOR     = 

OBJECT_NAME    = SL-3 R/B
OBJECT_ID      = 1983-010B
CENTER_NAME    = EARTH
REF_FRAME      = TEME
TIME_SYSTEM    = UTC
MEAN_ELEMENT_THEORY = SGP/SGP4

EPOCH          = 2026-03-31T04:11:12.427296
MEAN_MOTION    = 15.47083831
ECCENTRICITY   = .0015755
INCLINATION    = 81.1052
RA_OF_ASC_NODE = 335.8952
ARG_OF_PERICENTER = 337.2346
MEAN_ANOMALY   = 22.8198

EPHEMERIS_TYPE = 0
CLASSIFICATION_TYPE = U
NORAD_CAT_ID   = 13819
ELEMENT_SET_NO = 999
REV_AT_EPOCH   = 36126
BSTAR          = .33669E-3
MEAN_MOTION_DOT = .17169E-3
MEAN_MOTION_DDOT = 0

CCSDS_OMM_VERS = 2.0
CREATION_DATE  = 
ORIGINATOR     = 

OBJECT_NAME    = SL-3 R/B
OBJECT_ID      = 1983-075B
CENTER_NAME    = EARTH
REF_FRAME      = TEME
TIME_SYSTEM    = UTC
MEAN_ELEMENT_THEORY = SGP/SGP4

EPOCH          = 2026-03-31T11:21:28.158048
MEAN_MOTION    = 15.38938618
ECCENTRICITY   = .0022519
INCLINATION    = 97.6132
RA_OF_ASC_NODE = 95.8838
ARG_OF_PERICENTER = 147.5236
MEAN_ANOMALY   = 212.7400

EPHEMERIS_TYPE = 0
CLASSIFICATION_TYPE = U
NORAD_CAT_ID   = 14208
ELEMENT_SET_NO = 999
REV_AT_EPOCH   = 33350
BSTAR          = .34924E-3
MEAN_MOTION_DOT = .13495E-3
MEAN_MOTION_DDOT = 0

CCSDS_OMM_VERS = 2.0
CREATION_DATE  = 
ORIGINATOR     = 

OBJECT_NAME    = COSMOS 1536
OBJECT_ID      = 1984-013A
CENTER_NAME    = EARTH
REF_FRAME      = TEME
TIME_SYSTEM    = UTC
MEAN_ELEMENT_THEORY = SGP/SGP4

EPOCH          = 2026-03-31T09:18:25.135488
MEAN_MOTION    = 15.24126302
ECCENTRICITY   = .00136691
INCLINATION    = 82.5412
RA_OF_ASC_NODE = 86.2702
ARG_OF_PERICENTER = 198.4040
MEAN_ANOMALY   = 161.6705

EPHEMERIS_TYPE = 0
CLASSIFICATION_TYPE = U
NORAD_CAT_ID   = 14699
ELEMENT_SET_NO = 999
REV_AT_EPOCH   = 27592
BSTAR          = .37314507E-3
MEAN_MOTION_DOT = .9126E-4
MEAN_MOTION_DDOT = 0

CCSDS_OMM_VERS = 2.0
CREATION_DATE  = 
ORIGINATOR     = 

OBJECT_NAME    = SL-14 R/B
OBJECT_ID      = 1984-027B
CENTER_NAME    = EARTH
REF_FRAME      = TEME
TIME_SYSTEM    = UTC
MEAN_ELEMENT_THEORY = SGP/SGP4

EPOCH          = 2026-03-31T10:37:52.916448
MEAN_MOTION    = 14.86000279
ECCENTRICITY   = .001649
INCLINATION    = 82.5422
RA_OF_ASC_NODE = 224.6095
ARG_OF_PERICENTER = 260.6563
MEAN_ANOMALY   = 99.2789

EPHEMERIS_TYPE = 0
CLASSIFICATION_TYPE = U
NORAD_CAT_ID   = 14820
ELEMENT_SET_NO = 999
REV_AT_EPOCH   = 25086
BSTAR          = .80852E-4
MEAN_MOTION_DOT = .732E-5
MEAN_MOTION_DDOT = 0

CCSDS_OMM_VERS = 2.0
CREATION_DATE  = 
ORIGINATOR     = 

OBJECT_NAME    = SL-8 R/B
OBJECT_ID      = 1985-006B
CENTER_NAME    = EARTH
REF_FRAME      = TEME
TIME_SYSTEM    = UTC
MEAN_ELEMENT_THEORY = SGP/SGP4

EPOCH          = 2026-03-31T08:39:29.034144
MEAN_MOTION    = 14.37799045
ECCENTRICITY   = .0017585
INCLINATION    = 74.0455
RA_OF_ASC_NODE = 221.2693
ARG_OF_PERICENTER = 132.7551
MEAN_ANOMALY   = 257.7416

EPHEMERIS_TYPE = 0
CLASSIFICATION_TYPE = U
NORAD_CAT_ID   = 15483
ELEMENT_SET_NO = 999
REV_AT_EPOCH   = 15714
BSTAR          = .13277242E-3
MEAN_MOTION_DOT = .375E-5
MEAN_MOTION_DDOT = 0

CCSDS_OMM_VERS = 2.0
CREATION_DATE  = 
ORIGINATOR     = 

OBJECT_NAME    = SL-12 R/B(2)
OBJECT_ID      = 1985-042D
CENTER_NAME    = EARTH
REF_FRAME      = TEME
TIME_SYSTEM    = UTC
MEAN_ELEMENT_THEORY = SGP/SGP4

EPOCH          = 2026-03-31T07:23:30.312672
MEAN_MOTION    = 14.21988631
ECCENTRICITY   = .0032852
INCLINATION    = 71.1093
RA_OF_ASC_NODE = 42.0527
ARG_OF_PERICENTER = 92.2715
MEAN_ANOMALY   = 59.5144

EPHEMERIS_TYPE = 0
CLASSIFICATION_TYPE = U
NORAD_CAT_ID   = 15772
ELEMENT_SET_NO = 999
REV_AT_EPOCH   = 11746
BSTAR          = .63875E-4
MEAN_MOTION_DOT = .94E-6
MEAN_MOTION_DDOT = 0

CCSDS_OMM_VERS = 2.0
CREATION_DATE  = 
ORIGINATOR     = 

OBJECT_NAME    = SL-14 R/B
OBJECT_ID      = 1985-069B
CENTER_NAME    = EARTH
REF_FRAME      = TEME
TIME_SYSTEM    = UTC
MEAN_ELEMENT_THEORY = SGP/SGP4

EPOCH          = 2026-03-31T05:15:37.404288
MEAN_MOTION    = 14.86456742
ECCENTRICITY   = .0020145
INCLINATION    = 82.5305
RA_OF_ASC_NODE = 4.6942
ARG_OF_PERICENTER = 118.7356
MEAN_ANOMALY   = 241.5888

EPHEMERIS_TYPE = 0
CLASSIFICATION_TYPE = U
NORAD_CAT_ID   = 15945
ELEMENT_SET_NO = 999
REV_AT_EPOCH   = 17603
BSTAR          = .69335E-4
MEAN_MOTION_DOT = .639E-5
MEAN_MOTION_DDOT = 0

CCSDS_OMM_VERS = 2.0
CREATION_DATE  = 
ORIGINATOR     = 

OBJECT_NAME    = SL-16 R/B
OBJECT_ID      = 1985-097B
CENTER_NAME    = EARTH
REF_FRAME      = TEME
TIME_SYSTEM    = UTC
MEAN_ELEMENT_THEORY = SGP/SGP4

EPOCH          = 2026-03-31T09:21:17.976960
MEAN_MOTION    = 14.16603295
ECCENTRICITY   = .00093817
INCLINATION    = 71.0007
RA_OF_ASC_NODE = 94.8667
ARG_OF_PERICENTER = 234.3937
MEAN_ANOMALY   = 225.2718

EPHEMERIS_TYPE = 0
CLASSIFICATION_TYPE = U
NORAD_CAT_ID   = 16182
ELEMENT_SET_NO = 999
REV_AT_EPOCH   = 9030
BSTAR          = -.5450905E-4
MEAN_MOTION_DOT = -.157E-5
MEAN_MOTION_DDOT = 0

CCSDS_OMM_VERS = 2.0
CREATION_DATE  = 
ORIGINATOR     = 

OBJECT_NAME    = SL-14 R/B
OBJECT_ID      = 1986-006B
CENTER_NAME    = EARTH
REF_FRAME      = TEME
TIME_SYSTEM    = UTC
MEAN_ELEMENT_THEORY = SGP/SGP4

EPOCH          = 2026-03-31T09:25:21.923040
MEAN_MOTION    = 14.86851633
ECCENTRICITY   = .00759938
INCLINATION    = 82.5255
RA_OF_ASC_NODE = 239.3067
ARG_OF_PERICENTER = 199.7236
MEAN_ANOMALY   = 160.1040

EPHEMERIS_TYPE = 0
CLASSIFICATION_TYPE = U
NORAD_CAT_ID   = 16496
ELEMENT_SET_NO = 999
REV_AT_EPOCH   = 15243
BSTAR          = .13031692E-3
MEAN_MOTION_DOT = .1251E-4
MEAN_MOTION_DDOT = 0

CCSDS_OMM_VERS = 2.0
CREATION_DATE  = 
ORIGINATOR     = 

OBJECT_NAME    = COSMOS 1743
OBJECT_ID      = 1986-034A
CENTER_NAME    = EARTH
REF_FRAME      = TEME
TIME_SYSTEM    = UTC
MEAN_ELEMENT_THEORY = SGP/SGP4

EPOCH          = 2026-03-31T07:56:58.524288
MEAN_MOTION    = 15.60415234
ECCENTRICITY   = .00049787
INCLINATION    = 82.5308
RA_OF_ASC_NODE = 51.0858
ARG_OF_PERICENTER = 164.7623
MEAN_ANOMALY   = 195.3784

EPHEMERIS_TYPE = 0
CLASSIFICATION_TYPE = U
NORAD_CAT_ID   = 16719
ELEMENT_SET_NO = 999
REV_AT_EPOCH   = 18362
BSTAR          = .6166809E-3
MEAN_MOTION_DOT = .50869E-3
MEAN_MOTION_DDOT = 0

